[{"OBJECT_NAME":"STARLINK-4533","OBJECT_ID":"2022-097U","EPOCH":"2026-03-09T12:05:07.330848","MEAN_MOTION":15.08826735,"ECCENTRICITY":0.00020074,"INCLINATION":53.2165,"RA_OF_ASC_NODE":114.9571,"ARG_OF_PERICENTER":97.8373,"MEAN_ANOMALY":262.2847,"EPHEMERIS_TYPE":0,"CLASSIFICATION_TYPE":"U","NORAD_CAT_ID":53406,"ELEMENT_SET_NO":999,"REV_AT_EPOCH":19862,"BSTAR":-0.00010095786,"MEAN_MOTION_DOT":-1.894e-5,"MEAN_MOTION_DDOT":0},{"OBJECT_NAME":"ELECTRON KICK STAGE R\/B","OBJECT_ID":"2023-035A","EPOCH":"2026-03-09T00:22:03.988416","MEAN_MOTION":15.09409521,"ECCENTRICITY":0.00017263,"INCLINATION":44.1756,"RA_OF_ASC_NODE":311.3301,"ARG_OF_PERICENTER":9.8979,"MEAN_ANOMALY":350.1918,"EPHEMERIS_TYPE":0,"CLASSIFICATION_TYPE":"U","NORAD_CAT_ID":55908,"ELEMENT_SET_NO":999,"REV_AT_EPOCH":16322,"BSTAR":0.00066616987,"MEAN_MOTION_DOT":0.00010608,"MEAN_MOTION_DDOT":0}]
